{
  "norad_id": 63926,
  "name": "STARLINK-34012",
  "history": [
    {
      "epoch": "2026-03-28T17:52:04.729152Z",
      "apogee_km": 574.0914236516701,
      "perigee_km": 569.8778429102758,
      "latitude_deg": 3.071509115001072e-05,
      "longitude_deg": 132.3537585752509,
      "height_km": 574.2493351491241,
      "semi_major_axis_km": 6950.121633280973,
      "eccentricity": 0.00030313,
      "inclination_deg": 70.001,
      "raan_deg": 226.534,
      "arg_perigee_deg": 274.4331,
      "mean_anomaly_deg": 85.6482,
      "mean_motion_rev_day": 14.98353043
    },
    {
      "epoch": "2026-03-29T01:52:45.050880Z",
      "apogee_km": 573.8697606430433,
      "perigee_km": 570.1236385789534,
      "latitude_deg": -2.1197363368911787e-05,
      "longitude_deg": 11.016324212988257,
      "height_km": 574.4254825848432,
      "semi_major_axis_km": 6950.1336996109985,
      "eccentricity": 0.0002695,
      "inclination_deg": 70.003,
      "raan_deg": 225.6936,
      "arg_perigee_deg": 269.9572,
      "mean_anomaly_deg": 90.1278,
      "mean_motion_rev_day": 14.98349141
    },
    {
      "epoch": "2026-03-30T01:54:45.698112Z",
      "apogee_km": 574.1094277233206,
      "perigee_km": 569.9523932926886,
      "latitude_deg": 4.456526718659846e-05,
      "longitude_deg": 7.000130464301903,
      "height_km": 574.3851909738369,
      "semi_major_axis_km": 6950.167910508005,
      "eccentricity": 0.00029906,
      "inclination_deg": 70.0014,
      "raan_deg": 223.1671,
      "arg_perigee_deg": 272.0198,
      "mean_anomaly_deg": 88.0619,
      "mean_motion_rev_day": 14.98338078
    },
    {
      "epoch": "2026-03-30T13:07:42.336192Z",
      "apogee_km": 573.9328595291545,
      "perigee_km": 570.1558529729145,
      "latitude_deg": 1.1422648397332086e-05,
      "longitude_deg": -162.87218677077067,
      "height_km": 574.6938382846755,
      "semi_major_axis_km": 6950.181356251034,
      "eccentricity": 0.00027172,
      "inclination_deg": 70.002,
      "raan_deg": 221.9914,
      "arg_perigee_deg": 263.2444,
      "mean_anomaly_deg": 96.8406,
      "mean_motion_rev_day": 14.9833373
    },
    {
      "epoch": "2026-03-30T19:32:14.872992Z",
      "apogee_km": 574.4042457560463,
      "perigee_km": 569.7400993845167,
      "latitude_deg": -5.2648569915511425e-05,
      "longitude_deg": 100.05271050898249,
      "height_km": 574.4651235262526,
      "semi_major_axis_km": 6950.209172570281,
      "eccentricity": 0.00033554,
      "inclination_deg": 70.0012,
      "raan_deg": 221.3151,
      "arg_perigee_deg": 270.8581,
      "mean_anomaly_deg": 89.2193,
      "mean_motion_rev_day": 14.98324735
    },
    {
      "epoch": "2026-03-31T17:58:19.560864Z",
      "apogee_km": 580.8597241946809,
      "perigee_km": 566.0083877906582,
      "latitude_deg": -5.331168546816908e-06,
      "longitude_deg": 120.25673836046639,
      "height_km": 573.6904290047688,
      "semi_major_axis_km": 6951.571055992669,
      "eccentricity": 0.0010682,
      "inclination_deg": 70.0025,
      "raan_deg": 218.96,
      "arg_perigee_deg": 287.0235,
      "mean_anomaly_deg": 72.9753,
      "mean_motion_rev_day": 14.97884451
    },
    {
      "epoch": "2026-04-01T14:47:52.562112Z",
      "apogee_km": 574.3271607717206,
      "perigee_km": 569.6719593038079,
      "latitude_deg": 3.1670906762685323e-05,
      "longitude_deg": 164.82506106752263,
      "height_km": 574.3197427382593,
      "semi_major_axis_km": 6950.136560037764,
      "eccentricity": 0.0003349,
      "inclination_deg": 70.0027,
      "raan_deg": 216.7711,
      "arg_perigee_deg": 272.6545,
      "mean_anomaly_deg": 87.4231,
      "mean_motion_rev_day": 14.98348216
    },
    {
      "epoch": "2026-04-02T18:02:08.054304Z",
      "apogee_km": 574.1641400215158,
      "perigee_km": 569.7431873503465,
      "latitude_deg": 3.904362235772772e-05,
      "longitude_deg": 112.28030394221611,
      "height_km": 574.3730524723024,
      "semi_major_axis_km": 6950.090663685931,
      "eccentricity": 0.00031805,
      "inclination_deg": 70.0016,
      "raan_deg": 213.9095,
      "arg_perigee_deg": 270.2174,
      "mean_anomaly_deg": 89.8621,
      "mean_motion_rev_day": 14.98363058
    },
    {
      "epoch": "2026-04-03T18:04:09.613920Z",
      "apogee_km": 574.5023783881279,
      "perigee_km": 569.6150007792139,
      "latitude_deg": 2.0229046934252437e-06,
      "longitude_deg": 108.26206053951113,
      "height_km": 574.3241236415158,
      "semi_major_axis_km": 6950.195689583671,
      "eccentricity": 0.0003516,
      "inclination_deg": 70.0015,
      "raan_deg": 211.3848,
      "arg_perigee_deg": 273.8149,
      "mean_anomaly_deg": 86.2608,
      "mean_motion_rev_day": 14.98329095
    },
    {
      "epoch": "2026-04-04T20:00:01.999008Z",
      "apogee_km": 574.3406651520118,
      "perigee_km": 569.7521540649877,
      "latitude_deg": 59.57891503886694,
      "longitude_deg": 113.55934734751484,
      "height_km": 583.4710605080637,
      "semi_major_axis_km": 6950.1834096084995,
      "eccentricity": 0.0003301,
      "inclination_deg": 70.0018,
      "raan_deg": 208.661,
      "arg_perigee_deg": 279.7906,
      "mean_anomaly_deg": 146.6188,
      "mean_motion_rev_day": 14.98333066
    },
    {
      "epoch": "2026-04-05T11:44:19.953312Z",
      "apogee_km": 580.0238447027905,
      "perigee_km": 574.4748374798683,
      "latitude_deg": 7.063937300267422e-05,
      "longitude_deg": -162.86590441709993,
      "height_km": 579.6445816204882,
      "semi_major_axis_km": 6955.386341091329,
      "eccentricity": 0.0003989,
      "inclination_deg": 70.0022,
      "raan_deg": 207.0112,
      "arg_perigee_deg": 89.5819,
      "mean_anomaly_deg": 270.5797,
      "mean_motion_rev_day": 14.96652153
    },
    {
      "epoch": "2026-04-05T20:00:03.000384Z",
      "apogee_km": 574.3370788691909,
      "perigee_km": 569.7471805719233,
      "latitude_deg": 53.70876329667097,
      "longitude_deg": 101.52519714893312,
      "height_km": 582.033590581922,
      "semi_major_axis_km": 6950.179129720556,
      "eccentricity": 0.0003302,
      "inclination_deg": 70.0016,
      "raan_deg": 206.1398,
      "arg_perigee_deg": 278.2384,
      "mean_anomaly_deg": 140.6575,
      "mean_motion_rev_day": 14.9833445
    },
    {
      "epoch": "2026-04-06T00:32:47.398848Z",
      "apogee_km": 576.4299281963704,
      "perigee_km": 567.2560935815973,
      "latitude_deg": 7.294334532247382e-05,
      "longitude_deg": 3.14634862721352,
      "height_km": 569.8984540500576,
      "semi_major_axis_km": 6949.980010888984,
      "eccentricity": 0.00065999,
      "inclination_deg": 70.0024,
      "raan_deg": 205.6638,
      "arg_perigee_deg": 17.9002,
      "mean_anomaly_deg": 342.2389,
      "mean_motion_rev_day": 14.98398842
    },
    {
      "epoch": "2026-04-07T14:59:54.481632Z",
      "apogee_km": 578.8135049657476,
      "perigee_km": 563.375509203499,
      "latitude_deg": -4.3086681319496006e-05,
      "longitude_deg": 140.74772458636295,
      "height_km": 579.2459451035322,
      "semi_major_axis_km": 6949.231507084623,
      "eccentricity": 0.00111077,
      "inclination_deg": 70.0038,
      "raan_deg": 201.6239,
      "arg_perigee_deg": 222.1864,
      "mean_anomaly_deg": 137.8441,
      "mean_motion_rev_day": 14.98640938
    },
    {
      "epoch": "2026-04-07T20:00:00.999360Z",
      "apogee_km": 574.3737668193735,
      "perigee_km": 569.6296021533426,
      "latitude_deg": 40.605163816505744,
      "longitude_deg": 83.06590628499461,
      "height_km": 578.7382818961063,
      "semi_major_axis_km": 6950.138684486357,
      "eccentricity": 0.0003413,
      "inclination_deg": 70.0011,
      "raan_deg": 201.0976,
      "arg_perigee_deg": 275.2137,
      "mean_anomaly_deg": 128.4799,
      "mean_motion_rev_day": 14.98347529
    }
  ]
}